[
    {
        "Altitude(m)": 617710.6876362242,
        "Argument of Periapsis(deg)": 0.0,
        "Eccentricity": 0.0,
        "Inclination(deg)": 60.0,
        "Latitude(deg)": -41.10279002061948,
        "Longitude(deg)": -140.0334160771493,
        "Mean Anomaly(deg)": -49.09089999999994,
        "RAAN(deg)": 350.0,
        "Satellite Name": "Test1 1559",
        "Satellite Number": 1559,
        "Semi-Major Axis(m)": 6980739.136638005,
        "Time(s)": 0
    },
    {
        "Altitude(m)": 617517.9861831397,
        "Argument of Periapsis(deg)": 0.00010418945913296404,
        "Eccentricity": 0.0,
        "Inclination(deg)": 60.0,
        "Latitude(deg)": -40.63699744436101,
        "Longitude(deg)": -139.53662075747744,
        "Mean Anomaly(deg)": -48.470793854538094,
        "RAAN(deg)": 349.99957995086027,
        "Satellite Name": "Test1 1559",
        "Satellite Number": 1559,
        "Semi-Major Axis(m)": 6980739.136638005,
        "Time(s)": 10
    }
]